0 THOR BURNER 2 R/B
1 02985U 67096B   13282.10336906  .00000758  00000-0  15200-3 0  1517
2 02985 099.1770 092.8010 0092320 197.5434 162.2569 14.62637350435648
0 THOR BURNER 2 R/B
1 02985U 67096B   13283.12951806  .00000698  00000-0  14098-3 0  1520
2 02985 099.1768 093.9410 0092380 194.4173 165.4387 14.62639135435795
0 THOR BURNER 2 R/B
1 02985U 67096B   13284.49771480  .00000748  00000-0  15021-3 0  1533
2 02985 099.1768 095.4611 0092438 190.2569 169.6746 14.62641657435991
0 THOR BURNER 2 R/B
1 02985U 67096B   13285.59227018  .00000743  00000-0  14919-3 0  1549
2 02985 099.1767 096.6771 0092510 186.9215 173.0713 14.62642983436156
0 THOR BURNER 2 R/B
1 02985U 67096B   13287.09728207  .00000825  00000-0  16425-3 0  1558
2 02985 099.1769 098.3491 0092569 182.3534 177.7241 14.62645702436377
0 THOR BURNER 2 R/B
1 02985U 67096B   13288.12342510  .00001180  00000-0  22984-3 0  1565
2 02985 099.1769 099.4891 0092603 179.2381 180.8976 14.62649321436525
0 THOR BURNER 2 R/B
1 02985U 67096B   13289.42320343  .00000822  00000-0  16373-3 0  1577
2 02985 099.1771 100.9331 0092663 175.2941 184.9150 14.62652555436712
0 THOR BURNER 2 R/B
1 02985U 67096B   13290.65456936  .00000934  00000-0  18442-3 0  1586
2 02985 099.1773 102.3012 0092693 171.5638 188.7145 14.62654636436898
0 THOR BURNER 2 R/B
1 02985U 67096B   13291.74911486  .00000935  00000-0  18446-3 0  1599
2 02985 099.1774 103.5172 0092744 168.2430 192.0964 14.62656504437051
0 THOR BURNER 2 R/B
1 02985U 67096B   13293.11729410  .00001009  00000-0  19820-3 0  1608
2 02985 099.1775 105.0373 0092784 164.0991 196.3155 14.62659223437254
0 THOR BURNER 2 R/B
1 02985U 67096B   13294.48547102  .00000990  00000-0  19468-3 0  1612
2 02985 099.1775 106.5575 0092832 159.9531 200.5353 14.62663272437450
0 THOR BURNER 2 R/B
1 02985U 67096B   13295.51160084  .00001111  00000-0  21687-3 0  1620
2 02985 099.1775 107.6976 0092858 156.8497 203.6926 14.62664931437602
